STARLINK-35985          
1 66815U 25278AA  25365.39678590  .00149762  00000+0  24996-2 0  9998
2 66815  42.9983 140.9897 0001414 266.9352  93.1346 15.50696869  5965
STARLINK-36098          
1 66816U 25278AB  25365.39815292  .00089806  00000+0  15112-2 0  9993
2 66816  42.9969 140.9990 0000514 259.6659 100.4143 15.50725206  4754
STARLINK-35995          
1 66817U 25278AC  25365.50002315  .00052778  00000+0  12650-2 0  9993
2 66817  42.9994 140.5062 0001666 301.9158 226.3204 15.40628367  5973
STARLINK-35994          
1 66818U 25278AD  25365.43178019  .00059607  00000+0  14205-2 0  9997
2 66818  42.9980 141.2611 0001068 301.0011  59.0740 15.40753878  4759
STARLINK-35989          
1 66819U 25278AE  25365.39713519  .00135524  00000+0  22688-2 0  9990
2 66819  42.9988 140.9930 0001832 262.3917  97.6735 15.50669360  4756
KOMPSAT-7               
1 66820U 25279A   25365.28099499  .00004878  00000+0  38738-3 0  9996
2 66820  97.6464 310.8328 0010250 194.5463 165.5467 15.00894976  4439
STARLINK-35966          
1 66821U 25280A   25365.50002315 -.02088968  00000+0 -70278-1 0  9994
2 66821  69.9989 147.1833 0003132 269.7005  22.2661 15.33970454  5915
STARLINK-35958          
1 66822U 25280B   25365.50002315 -.02087847  00000+0 -60928-1 0  9991
2 66822  69.9996 147.1115 0003656 269.2578  87.9490 15.38940146  5916
STARLINK-35957          
1 66823U 25280C   25365.50002315 -.02092518  00000+0 -56890-1 0  9996
2 66823  70.0000 147.0841 0003667 270.7950 109.7461 15.41082320  5910
STARLINK-35896          
1 66824U 25280D   25365.50002315 -.02095201  00000+0 -67928-1 0  9993
2 66824  70.0001 147.1574 0003287 267.8601  46.4351 15.35136054  5916
STARLINK-35476          
1 66825U 25280E   25365.50002315 -.02098375  00000+0 -67967-1 0  9992
2 66825  69.9998 147.1549 0003269 266.4764  50.2212 15.35170625  5760
STARLINK-35898          
1 66826U 25280F   25365.50002315 -.02020287  00000+0 -54073-1 0  9994
2 66826  69.9996 147.0729 0003801 268.3531 121.6558 15.41417152  5912
