CCSDS_OMM_VERS = 2.0
CREATION_DATE  = 
ORIGINATOR     = 

OBJECT_NAME    = STARLINK-35985
OBJECT_ID      = 2025-278AA
CENTER_NAME    = EARTH
REF_FRAME      = TEME
TIME_SYSTEM    = UTC
MEAN_ELEMENT_THEORY = SGP/SGP4

EPOCH          = 2025-12-31T09:31:22.301760
MEAN_MOTION    = 15.50696869
ECCENTRICITY   = .0001414
INCLINATION    = 42.9983
RA_OF_ASC_NODE = 140.9897
ARG_OF_PERICENTER = 266.9352
MEAN_ANOMALY   = 93.1346

EPHEMERIS_TYPE = 0
CLASSIFICATION_TYPE = U
NORAD_CAT_ID   = 66815
ELEMENT_SET_NO = 999
REV_AT_EPOCH   = 596
BSTAR          = .24996E-2
MEAN_MOTION_DOT = .149762E-2
MEAN_MOTION_DDOT = 0

CCSDS_OMM_VERS = 2.0
CREATION_DATE  = 
ORIGINATOR     = 

OBJECT_NAME    = STARLINK-36098
OBJECT_ID      = 2025-278AB
CENTER_NAME    = EARTH
REF_FRAME      = TEME
TIME_SYSTEM    = UTC
MEAN_ELEMENT_THEORY = SGP/SGP4

EPOCH          = 2025-12-31T09:33:20.412288
MEAN_MOTION    = 15.50725206
ECCENTRICITY   = .0000514
INCLINATION    = 42.9969
RA_OF_ASC_NODE = 140.9990
ARG_OF_PERICENTER = 259.6659
MEAN_ANOMALY   = 100.4143

EPHEMERIS_TYPE = 0
CLASSIFICATION_TYPE = U
NORAD_CAT_ID   = 66816
ELEMENT_SET_NO = 999
REV_AT_EPOCH   = 475
BSTAR          = .15112E-2
MEAN_MOTION_DOT = .89806E-3
MEAN_MOTION_DDOT = 0

CCSDS_OMM_VERS = 2.0
CREATION_DATE  = 
ORIGINATOR     = 

OBJECT_NAME    = STARLINK-35995
OBJECT_ID      = 2025-278AC
CENTER_NAME    = EARTH
REF_FRAME      = TEME
TIME_SYSTEM    = UTC
MEAN_ELEMENT_THEORY = SGP/SGP4

EPOCH          = 2025-12-31T12:00:02.000160
MEAN_MOTION    = 15.40628367
ECCENTRICITY   = .0001666
INCLINATION    = 42.9994
RA_OF_ASC_NODE = 140.5062
ARG_OF_PERICENTER = 301.9158
MEAN_ANOMALY   = 226.3204

EPHEMERIS_TYPE = 0
CLASSIFICATION_TYPE = U
NORAD_CAT_ID   = 66817
ELEMENT_SET_NO = 999
REV_AT_EPOCH   = 597
BSTAR          = .1265E-2
MEAN_MOTION_DOT = .52778E-3
MEAN_MOTION_DDOT = 0

CCSDS_OMM_VERS = 2.0
CREATION_DATE  = 
ORIGINATOR     = 

OBJECT_NAME    = STARLINK-35994
OBJECT_ID      = 2025-278AD
CENTER_NAME    = EARTH
REF_FRAME      = TEME
TIME_SYSTEM    = UTC
MEAN_ELEMENT_THEORY = SGP/SGP4

EPOCH          = 2025-12-31T10:21:45.808416
MEAN_MOTION    = 15.40753878
ECCENTRICITY   = .0001068
INCLINATION    = 42.9980
RA_OF_ASC_NODE = 141.2611
ARG_OF_PERICENTER = 301.0011
MEAN_ANOMALY   = 59.0740

EPHEMERIS_TYPE = 0
CLASSIFICATION_TYPE = U
NORAD_CAT_ID   = 66818
ELEMENT_SET_NO = 999
REV_AT_EPOCH   = 475
BSTAR          = .14205E-2
MEAN_MOTION_DOT = .59607E-3
MEAN_MOTION_DDOT = 0

CCSDS_OMM_VERS = 2.0
CREATION_DATE  = 
ORIGINATOR     = 

OBJECT_NAME    = STARLINK-35989
OBJECT_ID      = 2025-278AE
CENTER_NAME    = EARTH
REF_FRAME      = TEME
TIME_SYSTEM    = UTC
MEAN_ELEMENT_THEORY = SGP/SGP4

EPOCH          = 2025-12-31T09:31:52.480416
MEAN_MOTION    = 15.50669360
ECCENTRICITY   = .0001832
INCLINATION    = 42.9988
RA_OF_ASC_NODE = 140.9930
ARG_OF_PERICENTER = 262.3917
MEAN_ANOMALY   = 97.6735

EPHEMERIS_TYPE = 0
CLASSIFICATION_TYPE = U
NORAD_CAT_ID   = 66819
ELEMENT_SET_NO = 999
REV_AT_EPOCH   = 475
BSTAR          = .22688E-2
MEAN_MOTION_DOT = .135524E-2
MEAN_MOTION_DDOT = 0

CCSDS_OMM_VERS = 2.0
CREATION_DATE  = 
ORIGINATOR     = 

OBJECT_NAME    = KOMPSAT-7
OBJECT_ID      = 2025-279A
CENTER_NAME    = EARTH
REF_FRAME      = TEME
TIME_SYSTEM    = UTC
MEAN_ELEMENT_THEORY = SGP/SGP4

EPOCH          = 2025-12-31T06:44:37.967136
MEAN_MOTION    = 15.00894976
ECCENTRICITY   = .00102502
INCLINATION    = 97.6464
RA_OF_ASC_NODE = 310.8328
ARG_OF_PERICENTER = 194.5463
MEAN_ANOMALY   = 165.5467

EPHEMERIS_TYPE = 0
CLASSIFICATION_TYPE = U
NORAD_CAT_ID   = 66820
ELEMENT_SET_NO = 999
REV_AT_EPOCH   = 443
BSTAR          = .3873834E-3
MEAN_MOTION_DOT = .4878E-4
MEAN_MOTION_DDOT = 0

CCSDS_OMM_VERS = 2.0
CREATION_DATE  = 
ORIGINATOR     = 

OBJECT_NAME    = STARLINK-35966
OBJECT_ID      = 2025-280A
CENTER_NAME    = EARTH
REF_FRAME      = TEME
TIME_SYSTEM    = UTC
MEAN_ELEMENT_THEORY = SGP/SGP4

EPOCH          = 2025-12-31T12:00:02.000160
MEAN_MOTION    = 15.33970454
ECCENTRICITY   = .0003132
INCLINATION    = 69.9989
RA_OF_ASC_NODE = 147.1833
ARG_OF_PERICENTER = 269.7005
MEAN_ANOMALY   = 22.2661

EPHEMERIS_TYPE = 0
CLASSIFICATION_TYPE = U
NORAD_CAT_ID   = 66821
ELEMENT_SET_NO = 999
REV_AT_EPOCH   = 591
BSTAR          = -.70278E-1
MEAN_MOTION_DOT = -.2088968E-1
MEAN_MOTION_DDOT = 0

CCSDS_OMM_VERS = 2.0
CREATION_DATE  = 
ORIGINATOR     = 

OBJECT_NAME    = STARLINK-35958
OBJECT_ID      = 2025-280B
CENTER_NAME    = EARTH
REF_FRAME      = TEME
TIME_SYSTEM    = UTC
MEAN_ELEMENT_THEORY = SGP/SGP4

EPOCH          = 2025-12-31T12:00:02.000160
MEAN_MOTION    = 15.38940146
ECCENTRICITY   = .0003656
INCLINATION    = 69.9996
RA_OF_ASC_NODE = 147.1115
ARG_OF_PERICENTER = 269.2578
MEAN_ANOMALY   = 87.9490

EPHEMERIS_TYPE = 0
CLASSIFICATION_TYPE = U
NORAD_CAT_ID   = 66822
ELEMENT_SET_NO = 999
REV_AT_EPOCH   = 591
BSTAR          = -.60928E-1
MEAN_MOTION_DOT = -.2087847E-1
MEAN_MOTION_DDOT = 0

CCSDS_OMM_VERS = 2.0
CREATION_DATE  = 
ORIGINATOR     = 

OBJECT_NAME    = STARLINK-35957
OBJECT_ID      = 2025-280C
CENTER_NAME    = EARTH
REF_FRAME      = TEME
TIME_SYSTEM    = UTC
MEAN_ELEMENT_THEORY = SGP/SGP4

EPOCH          = 2025-12-31T12:00:02.000160
MEAN_MOTION    = 15.41082320
ECCENTRICITY   = .0003667
INCLINATION    = 70.0000
RA_OF_ASC_NODE = 147.0841
ARG_OF_PERICENTER = 270.7950
MEAN_ANOMALY   = 109.7461

EPHEMERIS_TYPE = 0
CLASSIFICATION_TYPE = U
NORAD_CAT_ID   = 66823
ELEMENT_SET_NO = 999
REV_AT_EPOCH   = 591
BSTAR          = -.5689E-1
MEAN_MOTION_DOT = -.2092518E-1
MEAN_MOTION_DDOT = 0

CCSDS_OMM_VERS = 2.0
CREATION_DATE  = 
ORIGINATOR     = 

OBJECT_NAME    = STARLINK-35896
OBJECT_ID      = 2025-280D
CENTER_NAME    = EARTH
REF_FRAME      = TEME
TIME_SYSTEM    = UTC
MEAN_ELEMENT_THEORY = SGP/SGP4

EPOCH          = 2025-12-31T12:00:02.000160
MEAN_MOTION    = 15.35136054
ECCENTRICITY   = .0003287
INCLINATION    = 70.0001
RA_OF_ASC_NODE = 147.1574
ARG_OF_PERICENTER = 267.8601
MEAN_ANOMALY   = 46.4351

EPHEMERIS_TYPE = 0
CLASSIFICATION_TYPE = U
NORAD_CAT_ID   = 66824
ELEMENT_SET_NO = 999
REV_AT_EPOCH   = 591
BSTAR          = -.67928E-1
MEAN_MOTION_DOT = -.2095201E-1
MEAN_MOTION_DDOT = 0

CCSDS_OMM_VERS = 2.0
CREATION_DATE  = 
ORIGINATOR     = 

OBJECT_NAME    = STARLINK-35476
OBJECT_ID      = 2025-280E
CENTER_NAME    = EARTH
REF_FRAME      = TEME
TIME_SYSTEM    = UTC
MEAN_ELEMENT_THEORY = SGP/SGP4

EPOCH          = 2025-12-31T12:00:02.000160
MEAN_MOTION    = 15.35170625
ECCENTRICITY   = .0003269
INCLINATION    = 69.9998
RA_OF_ASC_NODE = 147.1549
ARG_OF_PERICENTER = 266.4764
MEAN_ANOMALY   = 50.2212

EPHEMERIS_TYPE = 0
CLASSIFICATION_TYPE = U
NORAD_CAT_ID   = 66825
ELEMENT_SET_NO = 999
REV_AT_EPOCH   = 576
BSTAR          = -.67967E-1
MEAN_MOTION_DOT = -.2098375E-1
MEAN_MOTION_DDOT = 0

CCSDS_OMM_VERS = 2.0
CREATION_DATE  = 
ORIGINATOR     = 

OBJECT_NAME    = STARLINK-35898
OBJECT_ID      = 2025-280F
CENTER_NAME    = EARTH
REF_FRAME      = TEME
TIME_SYSTEM    = UTC
MEAN_ELEMENT_THEORY = SGP/SGP4

EPOCH          = 2025-12-31T12:00:02.000160
MEAN_MOTION    = 15.41417152
ECCENTRICITY   = .0003801
INCLINATION    = 69.9996
RA_OF_ASC_NODE = 147.0729
ARG_OF_PERICENTER = 268.3531
MEAN_ANOMALY   = 121.6558

EPHEMERIS_TYPE = 0
CLASSIFICATION_TYPE = U
NORAD_CAT_ID   = 66826
ELEMENT_SET_NO = 999
REV_AT_EPOCH   = 591
BSTAR          = -.54073E-1
MEAN_MOTION_DOT = -.2020287E-1
MEAN_MOTION_DDOT = 0

